[{"OBJECT_NAME":"CELESTIS-02 & TAURUS R\/B","OBJECT_ID":"1998-007D","EPOCH":"2026-03-09T22:56:59.337312","MEAN_MOTION":14.22453237,"ECCENTRICITY":0.00634235,"INCLINATION":108.0072,"RA_OF_ASC_NODE":131.996,"ARG_OF_PERICENTER":301.5817,"MEAN_ANOMALY":134.6877,"EPHEMERIS_TYPE":0,"CLASSIFICATION_TYPE":"U","NORAD_CAT_ID":25160,"ELEMENT_SET_NO":999,"REV_AT_EPOCH":45640,"BSTAR":6.4821117e-5,"MEAN_MOTION_DOT":1.8e-7,"MEAN_MOTION_DDOT":0},{"OBJECT_NAME":"SL-14 DEB","OBJECT_ID":"1991-056DL","EPOCH":"2026-02-25T11:09:30.197376","MEAN_MOTION":14.22243161,"ECCENTRICITY":0.00157315,"INCLINATION":82.5513,"RA_OF_ASC_NODE":331.6279,"ARG_OF_PERICENTER":359.9282,"MEAN_ANOMALY":0.1895,"EPHEMERIS_TYPE":0,"CLASSIFICATION_TYPE":"U","NORAD_CAT_ID":47086,"ELEMENT_SET_NO":999,"REV_AT_EPOCH":27425,"BSTAR":0.00046972895,"MEAN_MOTION_DOT":1.059e-5,"MEAN_MOTION_DDOT":0}]
